ISS (ZARYA)             
1 25544U 98067A   26070.19118651  .00009215  00000+0  17770-3 0  9998
2 25544  51.6325  64.9326 0007932 179.9008 180.1983 15.48575655556567
POISK                   
1 36086U 09060A   26070.19118651  .00009215  00000+0  17770-3 0  9996
2 36086  51.6325  64.9326 0007932 179.9008 180.1983 15.48575655556302
CSS (TIANHE)            
1 48274U 21035A   26070.12336260  .00029353  00000+0  34529-3 0  9991
2 48274  41.4661 199.4375 0006951 281.6206  78.3852 15.60746125277830
ISS (NAUKA)             
1 49044U 21066A   26070.19118651  .00009215  00000+0  17770-3 0  9994
2 49044  51.6325  64.9326 0007932 179.9008 180.1983 15.48575655556344
FREGAT DEB              
1 49271U 11037PF  26069.81192602  .00021871  00000+0  31357-1 0  9995
2 49271  51.6511 297.3866 0960698  61.9904 307.4777 12.40223560212838
CSS (WENTIAN)           
1 53239U 22085A   26070.12336260  .00029353  00000+0  34529-3 0  9994
2 53239  41.4661 199.4375 0006951 281.6206  78.3852 15.60746125277602
CSS (MENGTIAN)          
1 54216U 22143A   26070.12336260  .00029353  00000+0  34529-3 0  9995
2 54216  41.4661 199.4375 0006951 281.6206  78.3852 15.60746125277574
PROGRESS-MS 31          
1 64751U 25146A   26070.19118651  .00009215  00000+0  17770-3 0  9999
2 64751  51.6325  64.9326 0007932 179.9008 180.1983 15.48575655556380
TIANZHOU-9              
1 64786U 25149A   26070.12336260  .00029353  00000+0  34529-3 0  9997
2 64786  41.4661 199.4375 0006951 281.6206  78.3852 15.60746125277588
PROGRESS-MS 32          
1 65586U 25204A   26070.19118651  .00009215  00000+0  17770-3 0  9991
2 65586  51.6325  64.9326 0007932 179.9008 180.1983 15.48575655556501
CYGNUS NG-23            
1 65616U 25208A   26070.19118651  .00009215  00000+0  17770-3 0  9999
2 65616  51.6325  64.9326 0007932 179.9008 180.1983 15.48575655556549
ISS OBJECT XK           
1 65731U 98067XK  26068.92741747  .09293516  12338-4  75547-3 0  9992
2 65731  51.6052  44.2508 0002464 211.8886 148.1991 16.39076546 26947
