CCSDS_OMM_VERS = 2.0
CREATION_DATE  = 
ORIGINATOR     = 

OBJECT_NAME    = ISS (ZARYA)
OBJECT_ID      = 1998-067A
CENTER_NAME    = EARTH
REF_FRAME      = TEME
TIME_SYSTEM    = UTC
MEAN_ELEMENT_THEORY = SGP/SGP4

EPOCH          = 2026-03-11T04:35:18.514464
MEAN_MOTION    = 15.48575655
ECCENTRICITY   = .0007932
INCLINATION    = 51.6325
RA_OF_ASC_NODE = 64.9326
ARG_OF_PERICENTER = 179.9008
MEAN_ANOMALY   = 180.1983

EPHEMERIS_TYPE = 0
CLASSIFICATION_TYPE = U
NORAD_CAT_ID   = 25544
ELEMENT_SET_NO = 999
REV_AT_EPOCH   = 55656
BSTAR          = .1777E-3
MEAN_MOTION_DOT = .9215E-4
MEAN_MOTION_DDOT = 0

CCSDS_OMM_VERS = 2.0
CREATION_DATE  = 
ORIGINATOR     = 

OBJECT_NAME    = POISK
OBJECT_ID      = 2009-060A
CENTER_NAME    = EARTH
REF_FRAME      = TEME
TIME_SYSTEM    = UTC
MEAN_ELEMENT_THEORY = SGP/SGP4

EPOCH          = 2026-03-11T04:35:18.514464
MEAN_MOTION    = 15.48575655
ECCENTRICITY   = .0007932
INCLINATION    = 51.6325
RA_OF_ASC_NODE = 64.9326
ARG_OF_PERICENTER = 179.9008
MEAN_ANOMALY   = 180.1983

EPHEMERIS_TYPE = 0
CLASSIFICATION_TYPE = U
NORAD_CAT_ID   = 36086
ELEMENT_SET_NO = 999
REV_AT_EPOCH   = 55630
BSTAR          = .1777E-3
MEAN_MOTION_DOT = .9215E-4
MEAN_MOTION_DDOT = 0

CCSDS_OMM_VERS = 2.0
CREATION_DATE  = 
ORIGINATOR     = 

OBJECT_NAME    = CSS (TIANHE)
OBJECT_ID      = 2021-035A
CENTER_NAME    = EARTH
REF_FRAME      = TEME
TIME_SYSTEM    = UTC
MEAN_ELEMENT_THEORY = SGP/SGP4

EPOCH          = 2026-03-11T02:57:38.528640
MEAN_MOTION    = 15.60746125
ECCENTRICITY   = .0006951
INCLINATION    = 41.4661
RA_OF_ASC_NODE = 199.4375
ARG_OF_PERICENTER = 281.6206
MEAN_ANOMALY   = 78.3852

EPHEMERIS_TYPE = 0
CLASSIFICATION_TYPE = U
NORAD_CAT_ID   = 48274
ELEMENT_SET_NO = 999
REV_AT_EPOCH   = 27783
BSTAR          = .34529E-3
MEAN_MOTION_DOT = .29353E-3
MEAN_MOTION_DDOT = 0

CCSDS_OMM_VERS = 2.0
CREATION_DATE  = 
ORIGINATOR     = 

OBJECT_NAME    = ISS (NAUKA)
OBJECT_ID      = 2021-066A
CENTER_NAME    = EARTH
REF_FRAME      = TEME
TIME_SYSTEM    = UTC
MEAN_ELEMENT_THEORY = SGP/SGP4

EPOCH          = 2026-03-11T04:35:18.514464
MEAN_MOTION    = 15.48575655
ECCENTRICITY   = .0007932
INCLINATION    = 51.6325
RA_OF_ASC_NODE = 64.9326
ARG_OF_PERICENTER = 179.9008
MEAN_ANOMALY   = 180.1983

EPHEMERIS_TYPE = 0
CLASSIFICATION_TYPE = U
NORAD_CAT_ID   = 49044
ELEMENT_SET_NO = 999
REV_AT_EPOCH   = 55634
BSTAR          = .1777E-3
MEAN_MOTION_DOT = .9215E-4
MEAN_MOTION_DDOT = 0

CCSDS_OMM_VERS = 2.0
CREATION_DATE  = 
ORIGINATOR     = 

OBJECT_NAME    = FREGAT DEB
OBJECT_ID      = 2011-037PF
CENTER_NAME    = EARTH
REF_FRAME      = TEME
TIME_SYSTEM    = UTC
MEAN_ELEMENT_THEORY = SGP/SGP4

EPOCH          = 2026-03-10T19:29:10.408128
MEAN_MOTION    = 12.40223560
ECCENTRICITY   = .09606982
INCLINATION    = 51.6511
RA_OF_ASC_NODE = 297.3866
ARG_OF_PERICENTER = 61.9904
MEAN_ANOMALY   = 307.4777

EPHEMERIS_TYPE = 0
CLASSIFICATION_TYPE = U
NORAD_CAT_ID   = 49271
ELEMENT_SET_NO = 999
REV_AT_EPOCH   = 21283
BSTAR          = .31356522E-1
MEAN_MOTION_DOT = .21871E-3
MEAN_MOTION_DDOT = 0

CCSDS_OMM_VERS = 2.0
CREATION_DATE  = 
ORIGINATOR     = 

OBJECT_NAME    = CSS (WENTIAN)
OBJECT_ID      = 2022-085A
CENTER_NAME    = EARTH
REF_FRAME      = TEME
TIME_SYSTEM    = UTC
MEAN_ELEMENT_THEORY = SGP/SGP4

EPOCH          = 2026-03-11T02:57:38.528640
MEAN_MOTION    = 15.60746125
ECCENTRICITY   = .0006951
INCLINATION    = 41.4661
RA_OF_ASC_NODE = 199.4375
ARG_OF_PERICENTER = 281.6206
MEAN_ANOMALY   = 78.3852

EPHEMERIS_TYPE = 0
CLASSIFICATION_TYPE = U
NORAD_CAT_ID   = 53239
ELEMENT_SET_NO = 999
REV_AT_EPOCH   = 27760
BSTAR          = .34529E-3
MEAN_MOTION_DOT = .29353E-3
MEAN_MOTION_DDOT = 0

CCSDS_OMM_VERS = 2.0
CREATION_DATE  = 
ORIGINATOR     = 

OBJECT_NAME    = CSS (MENGTIAN)
OBJECT_ID      = 2022-143A
CENTER_NAME    = EARTH
REF_FRAME      = TEME
TIME_SYSTEM    = UTC
MEAN_ELEMENT_THEORY = SGP/SGP4

EPOCH          = 2026-03-11T02:57:38.528640
MEAN_MOTION    = 15.60746125
ECCENTRICITY   = .0006951
INCLINATION    = 41.4661
RA_OF_ASC_NODE = 199.4375
ARG_OF_PERICENTER = 281.6206
MEAN_ANOMALY   = 78.3852

EPHEMERIS_TYPE = 0
CLASSIFICATION_TYPE = U
NORAD_CAT_ID   = 54216
ELEMENT_SET_NO = 999
REV_AT_EPOCH   = 27757
BSTAR          = .34529E-3
MEAN_MOTION_DOT = .29353E-3
MEAN_MOTION_DDOT = 0

CCSDS_OMM_VERS = 2.0
CREATION_DATE  = 
ORIGINATOR     = 

OBJECT_NAME    = PROGRESS-MS 31
OBJECT_ID      = 2025-146A
CENTER_NAME    = EARTH
REF_FRAME      = TEME
TIME_SYSTEM    = UTC
MEAN_ELEMENT_THEORY = SGP/SGP4

EPOCH          = 2026-03-11T04:35:18.514464
MEAN_MOTION    = 15.48575655
ECCENTRICITY   = .0007932
INCLINATION    = 51.6325
RA_OF_ASC_NODE = 64.9326
ARG_OF_PERICENTER = 179.9008
MEAN_ANOMALY   = 180.1983

EPHEMERIS_TYPE = 0
CLASSIFICATION_TYPE = U
NORAD_CAT_ID   = 64751
ELEMENT_SET_NO = 999
REV_AT_EPOCH   = 55638
BSTAR          = .1777E-3
MEAN_MOTION_DOT = .9215E-4
MEAN_MOTION_DDOT = 0

CCSDS_OMM_VERS = 2.0
CREATION_DATE  = 
ORIGINATOR     = 

OBJECT_NAME    = TIANZHOU-9
OBJECT_ID      = 2025-149A
CENTER_NAME    = EARTH
REF_FRAME      = TEME
TIME_SYSTEM    = UTC
MEAN_ELEMENT_THEORY = SGP/SGP4

EPOCH          = 2026-03-11T02:57:38.528640
MEAN_MOTION    = 15.60746125
ECCENTRICITY   = .0006951
INCLINATION    = 41.4661
RA_OF_ASC_NODE = 199.4375
ARG_OF_PERICENTER = 281.6206
MEAN_ANOMALY   = 78.3852

EPHEMERIS_TYPE = 0
CLASSIFICATION_TYPE = U
NORAD_CAT_ID   = 64786
ELEMENT_SET_NO = 999
REV_AT_EPOCH   = 27758
BSTAR          = .34529E-3
MEAN_MOTION_DOT = .29353E-3
MEAN_MOTION_DDOT = 0

CCSDS_OMM_VERS = 2.0
CREATION_DATE  = 
ORIGINATOR     = 

OBJECT_NAME    = PROGRESS-MS 32
OBJECT_ID      = 2025-204A
CENTER_NAME    = EARTH
REF_FRAME      = TEME
TIME_SYSTEM    = UTC
MEAN_ELEMENT_THEORY = SGP/SGP4

EPOCH          = 2026-03-11T04:35:18.514464
MEAN_MOTION    = 15.48575655
ECCENTRICITY   = .0007932
INCLINATION    = 51.6325
RA_OF_ASC_NODE = 64.9326
ARG_OF_PERICENTER = 179.9008
MEAN_ANOMALY   = 180.1983

EPHEMERIS_TYPE = 0
CLASSIFICATION_TYPE = U
NORAD_CAT_ID   = 65586
ELEMENT_SET_NO = 999
REV_AT_EPOCH   = 55650
BSTAR          = .1777E-3
MEAN_MOTION_DOT = .9215E-4
MEAN_MOTION_DDOT = 0

CCSDS_OMM_VERS = 2.0
CREATION_DATE  = 
ORIGINATOR     = 

OBJECT_NAME    = CYGNUS NG-23
OBJECT_ID      = 2025-208A
CENTER_NAME    = EARTH
REF_FRAME      = TEME
TIME_SYSTEM    = UTC
MEAN_ELEMENT_THEORY = SGP/SGP4

EPOCH          = 2026-03-11T04:35:18.514464
MEAN_MOTION    = 15.48575655
ECCENTRICITY   = .0007932
INCLINATION    = 51.6325
RA_OF_ASC_NODE = 64.9326
ARG_OF_PERICENTER = 179.9008
MEAN_ANOMALY   = 180.1983

EPHEMERIS_TYPE = 0
CLASSIFICATION_TYPE = U
NORAD_CAT_ID   = 65616
ELEMENT_SET_NO = 999
REV_AT_EPOCH   = 55654
BSTAR          = .1777E-3
MEAN_MOTION_DOT = .9215E-4
MEAN_MOTION_DDOT = 0

CCSDS_OMM_VERS = 2.0
CREATION_DATE  = 
ORIGINATOR     = 

OBJECT_NAME    = ISS OBJECT XK
OBJECT_ID      = 1998-067XK
CENTER_NAME    = EARTH
REF_FRAME      = TEME
TIME_SYSTEM    = UTC
MEAN_ELEMENT_THEORY = SGP/SGP4

EPOCH          = 2026-03-09T22:15:28.869408
MEAN_MOTION    = 16.39076546
ECCENTRICITY   = .0002464
INCLINATION    = 51.6052
RA_OF_ASC_NODE = 44.2508
ARG_OF_PERICENTER = 211.8886
MEAN_ANOMALY   = 148.1991

EPHEMERIS_TYPE = 0
CLASSIFICATION_TYPE = U
NORAD_CAT_ID   = 65731
ELEMENT_SET_NO = 999
REV_AT_EPOCH   = 2694
BSTAR          = .75547E-3
MEAN_MOTION_DOT = .9293516E-1
MEAN_MOTION_DDOT = .12338E-4

